API VERSION: 1.2
API SOURCE: NASA/JPL Horizons API



*******************************************************************************
Ephemeris / API_USER Wed Apr 15 12:09:40 2026 Pasadena, USA      / Horizons
*******************************************************************************
Target body name: Mars (499)                      {source: mar099}
Center body name: Sun (10)                        {source: DE441}
Center-site name: BODY CENTER
*******************************************************************************
Start time      : A.D. 1800-Jan-01 00:00:00.0000 TDB
Stop  time      : A.D. 1899-Dec-18 00:00:00.0000 TDB
Step-size       : 43200 minutes
*******************************************************************************
Center geodetic : 0.0, 0.0, 0.0                   {E-lon(deg),Lat(deg),Alt(km)}
Center cylindric: 0.0, 0.0, 0.0                   {E-lon(deg),Dxy(km),Dz(km)}
Center radii    : 695700.0, 695700.0, 695700.0 km {Equator_a, b, pole_c}
Output units    : AU-D
Calendar mode   : Mixed Julian/Gregorian
Output type     : GEOMETRIC cartesian states
Output format   : 3 (position, velocity, LT, range, range-rate)
Reference frame : Ecliptic of J2000.0
*******************************************************************************
            JDTDB,            Calendar Date (TDB),                      X,                      Y,                      Z,                     VX,                     VY,                     VZ,                     LT,                     RG,                     RR,
**************************************************************************************************************************************************************************************************************************************************************************
$$SOE
2409996.500000000, A.D. 1886-Mar-31 00:00:00.0000, -1.651430277713523E+00,  4.977325963090287E-02,  4.203444429633506E-02,  1.118082696443540E-04, -1.279892969289131E-02, -2.704065391317573E-04,  9.545284665782437E-03,  1.652714807227959E+00, -5.040521191887586E-04,
2410026.500000000, A.D. 1886-Apr-30 00:00:00.0000, -1.599132678576993E+00, -3.318459907423759E-01,  3.275640103046166E-02,  3.376298884644981E-03, -1.251335758549608E-02, -3.454714887980589E-04,  9.434482117304478E-03,  1.633529940672373E+00, -7.700861214212881E-04,
2410056.500000000, A.D. 1886-May-30 00:00:00.0000, -1.449548652911650E+00, -6.931037120209870E-01,  2.148917174162379E-02,  6.570177916646164E-03, -1.143589330562441E-02, -4.022220667193519E-04,  9.280533451904773E-03,  1.606874555551052E+00, -9.995651879491437E-04,
2410086.500000000, A.D. 1886-Jun-29 00:00:00.0000, -1.207421509340746E+00, -1.009845802590818E+00,  8.855619267105645E-03,  9.512877454095250E-03, -9.544185886322153E-03, -4.357114398656980E-04,  9.091138575678405E-03,  1.574081849276454E+00, -1.176403433418181E-03,
2410116.500000000, A.D. 1886-Jul-29 00:00:00.0000, -8.834412480808050E-01, -1.257722287127116E+00, -4.369733310411301E-03,  1.198784531946990E-02, -6.851283332090760E-03, -4.408363322042125E-04,  8.876941397890501E-03,  1.536994757608509E+00, -1.282775326118564E-03,
2410146.500000000, A.D. 1886-Aug-28 00:00:00.0000, -4.953301878219217E-01, -1.413636497159874E+00, -1.726398802953311E-02,  1.374425999792848E-02, -3.432987281959707E-03, -4.129564559190983E-04,  8.651753808093186E-03,  1.498004735090255E+00, -1.300277261643142E-03,
2410176.500000000, A.D. 1886-Sep-27 00:00:00.0000, -6.863850421438016E-02, -1.458130728536532E+00, -2.878608733864313E-02,  1.451630994838440E-02,  5.380712617374258E-04, -3.490859713731507E-04,  8.432425092048508E-03,  1.460029145115786E+00, -1.212925939947666E-03,
2410206.500000000, A.D. 1886-Oct-27 00:00:00.0000,  3.634263554358454E-01, -1.378771369675565E+00, -3.785179079804347E-02,  1.406967578269822E-02,  4.762678085921644E-03, -2.496626478889392E-04,  8.238007024942701E-03,  1.426366700301515E+00, -1.012294396214378E-03,
2410236.500000000, A.D. 1886-Nov-26 00:00:00.0000,  7.620185304610421E-01, -1.174090149679437E+00, -4.346611190768251E-02,  1.227722910088246E-02,  8.812432219628805E-03, -1.204876738471101E-04,  8.087889591584565E-03,  1.400374672444721E+00, -7.040092018801249E-04,
2410266.500000000, A.D. 1886-Dec-26 00:00:00.0000,  1.087165067447283E+00, -8.568378924023407E-01, -4.490341828527057E-02,  9.203572977540523E-03,  1.218207853774285E-02,  2.626901550654564E-05,  7.998864314336041E-03,  1.384960423516803E+00, -3.129642000643826E-04,
2410296.500000000, A.D. 1887-Jan-25 00:00:00.0000,  1.304372493781897E+00, -4.547049961941391E-01, -4.188648632951134E-02,  5.150827848994175E-03,  1.440377729727930E-02,  1.733268277447364E-04,  7.981713497147038E-03,  1.381990851574550E+00,  1.171271237489588E-04,
2410326.500000000, A.D. 1887-Feb-24 00:00:00.0000,  1.391389166052591E+00, -7.124680290104867E-03, -3.468750129883014E-02,  6.179757840214924E-04,  1.518315399393614E-02,  3.021432918628598E-04,  8.038595794572520E-03,  1.391839716067952E+00,  5.325247500718858E-04,
2410356.500000000, A.D. 1887-Mar-26 00:00:00.0000,  1.342376083480986E+00,  4.414053432632051E-01, -2.409198881323872E-02, -3.825167990373758E-03,  1.448301024637815E-02,  3.977947237352793E-04,  8.162490529704705E-03,  1.413291424472687E+00,  8.833849806623793E-04,
2410386.500000000, A.D. 1887-Apr-25 00:00:00.0000,  1.167772203841709E+00,  8.490468062707267E-01, -1.123394376901050E-02, -7.684981649043835E-03,  1.250685494941493E-02,  4.522843252236479E-04,  8.338973699260930E-03,  1.443848538038685E+00,  1.135518244908781E-03,
2410416.500000000, A.D. 1887-May-25 00:00:00.0000,  8.904196224333544E-01,  1.182538374536555E+00,  2.624107175951425E-03, -1.063684872345558E-02,  9.603910873753623E-03,  4.648555545820849E-04,  8.549427425346718E-03,  1.480287471136734E+00,  1.274721428919526E-03,
2410446.500000000, A.D. 1887-Jun-24 00:00:00.0000,  5.401117674505500E-01,  1.419881141826293E+00,  1.628254311579726E-02, -1.253844352984797E-02,  6.159409750871619E-03,  4.400295330797886E-04,  8.774318867865118E-03,  1.519226217343162E+00,  1.303712134040739E-03,
2410476.500000000, A.D. 1887-Jul-24 00:00:00.0000,  1.486498194109918E-01,  1.550163115935913E+00,  2.872377838042187E-02, -1.338917082966732E-02,  2.518393064056718E-03,  3.850100861319001E-04,  8.995594626934755E-03,  1.557538927366988E+00,  1.235719457155739E-03,
2410506.500000000, A.D. 1887-Aug-23 00:00:00.0000, -2.535711180936729E-01,  1.571772789391943E+00,  3.915967392283212E-02, -1.327441891235789E-02, -1.046295269088011E-03,  3.076223810786663E-04,  9.197957644192463E-03,  1.592576997656925E+00,  1.088498205558142E-03,
2410536.500000000, A.D. 1887-Sep-22 00:00:00.0000, -6.394103219093659E-01,  1.490170253278584E+00,  4.703071218949168E-02, -1.231947770151231E-02, -4.334451646658394E-03,  2.151612422678662E-04,  9.369280798805370E-03,  1.622240682330969E+00,  8.804177436616459E-04,
2410566.500000000, A.D. 1887-Oct-22 00:00:00.0000, -9.857018074203739E-01,  1.315902396804654E+00,  5.198242435401433E-02, -1.066058954319610E-02, -7.204289697341249E-03,  1.139754812560404E-04,  9.500524620770954E-03,  1.644964845675963E+00,  6.285514401351484E-04,
2410596.500000000, A.D. 1887-Nov-21 00:00:00.0000, -1.273339089005656E+00,  1.063112819418932E+00,  5.383632987654735E-02, -8.430780655366406E-03, -9.554970678099217E-03,  9.474384686456414E-06,  9.585446059743210E-03,  1.659668537032982E+00,  3.481061401475261E-04,
2410626.500000000, A.D. 1887-Dec-21 00:00:00.0000, -1.487100648304406E+00,  7.485530017288741E-01,  5.256485300711664E-02, -5.756014582611027E-03, -1.131122670026631E-02, -9.364304803949500E-05,  9.620292167951714E-03,  1.665701953638870E+00,  5.270930041427946E-05,
2410656.500000000, A.D. 1888-Jan-20 00:00:00.0000, -1.615464843748235E+00,  3.909948763073908E-01,  4.827454384960221E-02, -2.757784234785847E-03, -1.241215112384435E-02, -1.910846516689812E-04,  9.603584409599639E-03,  1.662809094956191E+00, -2.448919368240587E-04,
2410686.500000000, A.D. 1888-Feb-19 00:00:00.0000, -1.650562050954109E+00,  1.091146239415152E-02,  4.119820263339610E-02,  4.406730344401876E-04, -1.280448905263443E-02, -2.786786727383060E-04,  9.536028671624015E-03,  1.651112181519364E+00, -5.320988837478860E-04,
2410716.500000000, A.D. 1888-Mar-20 00:00:00.0000, -1.588351242955009E+00, -3.697087027008131E-01,  3.169531139394131E-02,  3.705766266339592E-03, -1.244051997427042E-02, -3.521119880820234E-04,  9.420556970808732E-03,  1.631118876297432E+00, -7.956809724892800E-04,
2410746.500000000, A.D. 1888-Apr-19 00:00:00.0000, -1.429079440333025E+00, -7.275622285784464E-01,  2.025933939691200E-02,  6.883509521485427E-03, -1.128139777273280E-02, -4.067469659483919E-04,  9.262507729906153E-03,  1.603753498536913E+00, -1.020981999919339E-03,
2410776.500000000, A.D. 1888-May-19 00:00:00.0000, -1.178042261581683E+00, -1.038430650886784E+00,  7.528256237724333E-03,  9.789848181687238E-03, -9.307302398501853E-03, -4.376006339030211E-04,  9.069914996967665E-03,  1.570407100536551E+00, -1.191513445069283E-03,
2410806.500000000, A.D. 1888-Jun-18 00:00:00.0000, -8.465950271277651E-01, -1.278007820208229E+00, -5.707788668688500E-03,  1.220434813666403E-02, -6.536126455266651E-03, -4.395788476383068E-04,  8.853814422404713E-03,  1.532990445933156E+00, -1.289251802066181E-03,
2410836.500000000, A.D. 1888-Jul-18 00:00:00.0000, -4.532327578279919E-01, -1.423433350549926E+00, -1.851171573375395E-02,  1.387320599176101E-02, -3.051828065129138E-03, -4.081389783784956E-04,  8.628410063767319E-03,  1.493962891053711E+00, -1.295990832409090E-03,
2410866.500000000, A.D. 1888-Aug-17 00:00:00.0000, -2.432472691821666E-02, -1.455787321009687E+00, -2.983347753751009E-02,  1.453100716782801E-02,  9.610805299797355E-04, -3.405550348575016E-04,  8.410865063190193E-03,  1.456296141838668E+00, -1.196481704631309E-03,
